241P/LINEAR,e,21.0791,305.4847,111.1202,4.942038,0.0897108,0.61088598,315.8448,03/20.0/2020,2000,g 13.5,4.0
# From MPC 81861
242P/Spahr,e,32.4801,180.4985,246.2863,5.476467,0.0769048,0.27787396,225.1949,03/20.0/2020,2000,g  8.0,4.0
# From MPC111774
243P/NEAT,e,7.6414,87.6567,283.5331,3.831795,0.1314016,0.35966083,75.1574,03/20.0/2020,2000,g 12.5,4.0
# From MPC 88331
244P/Scotti,e,2.2590,353.9908,92.8551,4.895566,0.0909913,0.19818842,271.6349,03/20.0/2020,2000,g  9.0,4.0
# From MPC111774
245P/WISE,e,21.1967,316.6570,316.7910,4.041863,0.1212919,0.45770218,93.4170,03/20.0/2020,2000,g 14.0,4.0
# From MPC114608
246P/NEAT,e,15.9871,78.7486,176.2389,4.016182,0.1224571,0.28679413,318.4169,03/20.0/2020,2000,g 10.5,4.0
# From MPC112394
247P/LINEAR,e,13.6583,54.0126,47.4786,3.970459,0.1245785,0.62468596,59.0462,03/20.0/2020,2000,g 16.5,2.0
# From MPC 75730
248P/Gibbs,e,6.3463,207.7458,209.9345,5.990109,0.0672283,0.63780261,224.9783,03/20.0/2020,2000,g 14.0,4.0
# From MPC105243
249P/LINEAR,e,8.3970,239.1783,65.6082,2.761417,0.2147861,0.82011018,338.1990,03/20.0/2020,2000,g 15.5,4.0
# From MPC110497
250P/Larson,e,13.2620,73.6805,45.7291,3.748152,0.1358246,0.40545045,105.4197,03/20.0/2020,2000,g 14.5,4.0
# From MPC104795
251P/LINEAR,e,23.4094,219.4047,31.2474,3.509459,0.1499146,0.50562849,146.5293,03/20.0/2020,2000,g 16.5,2.0
# From MPC102956
252P/LINEAR,e,10.4120,190.9554,343.3231,3.049104,0.1851168,0.67207811,271.5277,03/20.0/2020,2000,g 17.5,4.0
# From MPC112394
253P/PANSTARRS,e,4.9419,146.8742,230.6632,3.468417,0.1525834,0.41325857,104.1048,03/20.0/2020,2000,g 14.5,4.0
# From MPC 81473
254P/McNaught,e,32.5662,129.1714,219.4345,4.619271,0.0992759,0.32086698,340.8010,03/20.0/2020,2000,g 11.0,4.0
# From NK 2214
255P/Levy,e,18.9112,279.0152,181.7832,2.930181,0.1965000,0.72837788,190.1169,03/20.0/2020,2000,g  9.0,4.0
# From MPC 84027
256P/LINEAR,e,27.6377,81.3494,124.3160,4.635843,0.0987441,0.41856253,252.6558,03/20.0/2020,2000,g 14.0,2.0
# From MPC114608
257P/Catalina,e,20.2226,207.7634,117.6491,3.764293,0.1349519,0.43090528,336.4107,03/20.0/2020,2000,g 11.5,4.0
# From MPC 79655
258P/PANSTARRS,e,6.7457,126.2471,26.1226,4.402750,0.1066886,0.20923796,350.2233,03/20.0/2020,2000,g 13.0,4.0
# From MPC106349
259P/Garradd,e,15.8878,51.4677,257.5493,2.731307,0.2183475,0.33833216,209.2622,03/20.0/2020,2000,g 15.5,4.0
# From MPEC 2020-C98
260P/McNaught,e,15.0520,349.3513,18.3979,3.622004,0.1429818,0.60885609,27.4573,03/20.0/2020,2000,g 13.5,4.0
# From MPEC 2019-TG9
261P/Larson,e,6.0761,291.1624,67.1244,3.489143,0.1512258,0.42294342,41.6313,03/20.0/2020,2000,g 14.0,4.0
# From MPC 82322
262P/McNaught-Russell,e,29.1541,217.9142,170.9997,6.877542,0.0546455,0.81489321,145.7539,03/20.0/2020,2000,g 13.5,4.0
# From MPC 89018
263P/Gibbs,e,11.5505,105.8174,34.4386,3.055842,0.1845048,0.58923463,166.3518,03/20.0/2020,2000,g  9.0,4.0
# From MPC114608
264P/Larsen,e,25.1424,220.8907,346.6586,3.897225,0.1281064,0.37431162,29.2050,03/20.0/2020,2000,g 13.0,4.0
# From MPC 79870
265P/LINEAR,e,14.3585,342.9817,33.4120,4.253528,0.1123518,0.64787866,323.3729,03/20.0/2020,2000,g 14.5,4.0
# From MPEC 2019-TG9
266P/Christensen,e,3.4258,5.0046,97.8570,3.535579,0.1482563,0.33950477,355.4711,03/20.0/2020,2000,g 12.5,4.0
# From MPC114608
267P/LONEOS,e,6.1375,228.6734,114.0827,3.212289,0.1711915,0.61389776,103.8384,03/20.0/2020,2000,g 19.5,4.0
# From MPC 92277
268P/Bernardi,e,16.1321,127.5825,0.1146,4.552511,0.1014676,0.47067230,181.6521,03/20.0/2020,2000,g 14.0,4.0
# From MPC104795
269P/Jedicke,e,7.0702,241.7026,226.0064,7.082198,0.0522940,0.43065712,104.3810,03/20.0/2020,2000,g 10.0,4.0
# From MPC 88332
270P/Gehrels,e,2.9170,222.9600,209.9486,6.670442,0.0572100,0.46680556,141.7354,03/20.0/2020,2000,g  8.0,4.0
# From MPC 92277
271P/van Houten-Lemmon,e,6.8642,9.2938,36.5065,7.050546,0.0526466,0.39306585,128.7376,03/20.0/2020,2000,g 11.0,4.0
# From MPC 81862
272P/NEAT,e,18.0763,109.4656,28.0134,4.453373,0.1048746,0.45416565,270.9082,03/20.0/2020,2000,g 16.0,2.0
# From MPC 82723
273P/Pons-Gambart,e,136.7341,320.4003,20.2865,31.67986,0.0055275,0.97404079,0.0000,12/16.8570/2012,2000,g 11.5,4.0
# From MPC 88332
274P/Tombaugh-Tenagra,e,15.8177,81.3361,38.5325,4.370153,0.1078845,0.43867825,279.1040,03/20.0/2020,2000,g 13.0,4.0
# From MPC 81862
275P/Hermann,e,21.2890,348.7563,174.1153,5.770679,0.0710990,0.71269931,187.9207,03/20.0/2020,2000,g 17.0,4.0
# From MPC114609
276P/Vorobjov,e,14.8253,211.4724,200.0391,5.309546,0.0805597,0.26749833,220.2340,03/20.0/2020,2000,g 11.5,4.0
# From MPC105243
277P/LINEAR,e,16.7792,276.3455,152.3090,3.851646,0.1303871,0.50547232,322.8136,03/20.0/2020,2000,g 14.0,4.0
# From MPC105243
278P/McNaught,e,6.6851,15.4495,238.0805,3.692962,0.1388807,0.43485070,335.5494,03/20.0/2020,2000,g 14.0,4.0
# From MPC100285
279P/La Sagra,e,5.0508,346.2241,5.7547,3.576104,0.1457434,0.39785766,195.8838,03/20.0/2020,2000,g 14.0,4.0
# From MPC 89013
280P/Larsen,e,11.7738,131.3997,104.7935,4.528808,0.1022653,0.41815045,234.0173,03/20.0/2020,2000,g 12.5,4.0
# From MPC 83145
281P/MOSS,e,4.7198,87.1709,26.9423,4.868454,0.0917524,0.17150426,263.5620,03/20.0/2020,2000,g 11.0,4.0
# From MPC xxxxx
282P/,e,5.8095,9.3028,217.4759,4.245636,0.1126652,0.18938804,294.3543,03/20.0/2020,2000,g 13.5,2.0
# From MPEC 2013-M31
283P/Spacewatch,e,14.4538,161.1434,22.2781,4.139083,0.1170437,0.48511308,297.1440,03/20.0/2020,2000,g  9.0,4.0
# From MPC 93589
284P/McNaught,e,11.8584,144.2819,202.6762,3.674454,0.1399313,0.37581884,284.0927,03/20.0/2020,2000,g 13.0,4.0
# From MPC 85339
285P/LINEAR,e,25.0243,185.4830,178.4057,4.509138,0.1029352,0.61791206,254.0900,03/20.0/2020,2000,g 15.0,4.0
# From MPC 90771
286P/Christensen,e,17.0449,283.9650,24.7379,4.111804,0.1182103,0.42513893,267.3805,03/20.0/2020,2000,g 14.0,4.0
# From MPC 96868
287P/Christensen,e,16.3177,139.0376,188.8127,4.168496,0.1158071,0.27038633,220.8909,03/20.0/2020,2000,g 13.5,4.0
# From MPC xxxxx
288P/,e,3.2403,83.1869,280.7844,3.047099,0.1852995,0.20135796,227.7089,03/20.0/2020,2000,g 16.0,2.0
# From MPC118844
289P/Blanpain,e,5.8938,68.8904,9.8911,3.048588,0.1851638,0.68544893,16.6652,03/20.0/2020,2000,g  2.5,4.0
# From MPC 95214
290P/Jager,e,19.7642,302.8779,181.4309,6.139125,0.0647954,0.64681685,142.4387,03/20.0/2020,2000,g 10.5,4.0
# From MPC 89314
291P/NEAT,e,6.3384,238.2547,174.1211,4.505386,0.1030638,0.43709808,242.2203,03/20.0/2020,2000,g 13.0,4.0
# From MPC115887
292P/Li,e,24.2520,91.0026,319.4813,6.111235,0.0652395,0.58745749,146.2161,03/20.0/2020,2000,g 12.5,4.0
# From MPC 92278
293P/Spacewatch,e,9.0571,78.4114,41.0951,3.643013,0.1417467,0.41817783,321.1089,03/20.0/2020,2000,g 14.5,4.0
# From MPC 89013
294P/LINEAR,e,18.2152,312.5962,235.5395,3.205295,0.1717521,0.59425496,19.1103,03/20.0/2020,2000,g 15.5,4.0
# From MPC 93589
295P/LINEAR,e,21.0731,7.4172,72.9758,5.306485,0.0806295,0.61602398,172.8501,03/20.0/2020,2000,g 12.0,4.0
# From MPC 92278
296P/Garradd,e,25.2351,263.6404,350.1175,3.496720,0.1507346,0.47850442,332.5797,03/20.0/2020,2000,g 14.0,4.0
# From MPC102956
297P/Beshore,e,10.3286,97.6611,132.4528,3.443431,0.1542471,0.31937975,312.3824,03/20.0/2020,2000,g 15.0,4.0
# From MPC114609
298P/Christensen,e,7.8702,52.8296,100.6947,3.593744,0.1446716,0.38695824,335.3490,03/20.0/2020,2000,g 15.0,4.0
# From MPC101100
299P/Catalina-PANSTARRS,e,10.4779,271.6229,323.8985,4.383296,0.1073997,0.28213944,198.7154,03/20.0/2020,2000,g 11.5,4.0
# From MPC114609
300P/Catalina,e,5.6765,95.6699,222.8635,2.700043,0.2221509,0.69164090,111.9340,03/20.0/2020,2000,g 16.0,4.0
# From MPC 89014
301P/LINEAR-NEAT,e,10.3469,351.1799,193.7309,5.737137,0.0717235,0.58591717,145.4620,03/20.0/2020,2000,g 13.0,4.0
# From MPEC 2020-C98
302P/Lemmon-PANSTARRS,e,6.0338,121.7536,208.1638,4.277997,0.1113893,0.22964433,158.0435,03/20.0/2020,2000,g 12.5,4.0
# From MPC 92278
303P/NEAT,e,7.0161,347.9713,356.8478,5.050173,0.0868450,0.50989171,172.2201,03/20.0/2020,2000,g 13.5,4.0
# From MPC 92987
304P/Ory,e,2.6067,58.9403,335.2138,3.150527,0.1762501,0.60046907,334.3618,03/20.0/2020,2000,g 16.5,4.0
# From MPC101100
305P/Skiff,e,11.6394,240.1388,147.2638,4.645530,0.0984354,0.69260685,192.1837,03/20.0/2020,2000,g 18.0,4.0
# From MPC 92278
306P/LINEAR,e,8.3104,341.3840,0.8015,3.121349,0.1787271,0.59316632,10.2124,03/20.0/2020,2000,g 19.0,4.0
# From MPC 92278
307P/LINEAR,e,4.4306,158.1209,222.1785,5.795924,0.0706350,0.67383835,135.4464,03/20.0/2020,2000,g 15.0,4.0
# From MPC109148
308P/Lagerkvist-Carsenty,e,4.8492,63.1159,333.6532,6.609500,0.0580031,0.36250180,103.3074,03/20.0/2020,2000,g 13.0,2.0
# From MPC 94284
309P/LINEAR,e,17.0246,10.1486,50.0050,4.370369,0.1078765,0.61760055,201.2262,03/20.0/2020,2000,g 15.0,4.0
# From MPC 98566
310P/Hill,e,13.1286,8.9292,31.8982,4.177121,0.1154485,0.42170305,208.2223,03/20.0/2020,2000,g 13.5,4.0
# From MPC109593
311P/PANSTARRS,e,4.9700,279.2272,144.5861,2.188366,0.3044557,0.11526928,298.6685,03/20.0/2020,2000,g 17.0,4.0
# From MPC 92279
312P/NEAT,e,19.7640,144.6744,207.5207,3.468506,0.1525775,0.42824243,331.1690,03/20.0/2020,2000,g 16.0,4.0
# From MPEC 2019-TG9
313P/Gibbs,e,10.9834,105.9723,254.6039,3.161027,0.1753726,0.23477630,355.4124,03/20.0/2020,2000,g 15.0,4.0
# From MPC105243
314P/Montani,e,3.9790,267.6198,214.2429,7.277445,0.0502037,0.41645272,63.1313,03/20.0/2020,2000,g  9.5,4.0
# From MPC115888
315P/LONEOS,e,17.8601,69.2378,65.6314,4.944177,0.0896526,0.52274903,107.7642,03/20.0/2020,2000,g 11.0,4.0
# From MPC 92279
316P/LONEOS-Christensen,e,9.8881,246.7682,193.8961,4.344509,0.1088411,0.16137444,174.5005,03/20.0/2020,2000,g 13.5,4.0
# From MPEC 2020-C98
317P/WISE,e,11.9509,275.5196,334.8989,2.965481,0.1930018,0.57043645,323.2958,03/20.0/2020,2000,g 17.5,4.0
# From MPC102103
318P/McNaught-Hartley,e,17.8716,35.6621,313.0982,7.496521,0.0480191,0.67476041,77.2943,03/20.0/2020,2000,g  8.5,6.0
# From MPC 97499
319P/Catalina-McNaught,e,15.0951,111.3787,203.6054,3.569382,0.1461553,0.66639818,251.6312,03/20.0/2020,2000,g 15.0,4.0
# From MPC 96281
